STARLINK-35158          
1 66381U 25257B   25325.62379149  .00490546  00000+0  25357-2 0  9994
2 66381  53.1537   5.7112 0001996 334.5225  25.5698 15.79205458  3098
STARLINK-35639          
1 66382U 25257C   25325.49645779  .05091158  00000+0  20008-1 0  9993
2 66382  53.1524   6.3389 0019230 313.1887  46.7528 15.82190433  3070
STARLINK-35690          
1 66383U 25257D   25325.62266863 -.00122930  00000+0 -71669-3 0  9993
2 66383  53.1525   5.7018 0002515  79.0202 281.1102 15.77975934  3097
STARLINK-35662          
1 66384U 25257E   25325.36893944 -.00556061  00000+0 -33372-2 0  9995
2 66384  53.1528   6.9647 0002296  37.4332 322.6850 15.78534204  3059
STARLINK-35659          
1 66385U 25257F   25325.62305124 -.00087942  00000+0 -50764-3 0  9995
2 66385  53.1529   5.7050 0002558 100.7123 259.4186 15.78057727  3092
STARLINK-35651          
1 66386U 25257G   25325.49489113  .01465307  00000+0  67996-2 0  9990
2 66386  53.1527   6.3282 0000684  91.4871 268.6230 15.80079757  3079
STARLINK-35661          
1 66387U 25257H   25325.62138819  .00402024  00000+0  21618-2 0  9997
2 66387  53.1527   5.6939 0001370  56.6034 303.5119 15.78567271  3095
STARLINK-35647          
1 66388U 25257J   25325.62078953  .02832619  00000+0  12831-1 0  9995
2 66388  53.1526   5.6903 0003847 284.5394  75.5201 15.80114745  3093
STARLINK-35694          
1 66389U 25257K   25325.62075227 -.00174443  00000+0 -10408-2 0  9990
2 66389  53.1526   5.6893 0000746 298.1961  61.8985 15.77636738  3092
STARLINK-35665          
1 66390U 25257L   25325.61411184 -.00699106  00000+0 -47555-2 0  9998
2 66390  53.1518   5.6430 0001010  59.5760 300.5360 15.76126151  3196
STARLINK-35656          
1 66391U 25257M   25325.40016353 -.00783312  00000+0 -39462-2 0  9996
2 66391  53.1528   6.4312 0000615  47.3708 312.7367 15.82892740  3163
STARLINK-35671          
1 66392U 25257N   25325.61997273 -.00055266  00000+0 -32335-3 0  9992
2 66392  53.1524   5.6840 0001605  72.2930 287.8267 15.77576783  3094
