CCSDS_OMM_VERS = 2.0
CREATION_DATE  = 
ORIGINATOR     = 

OBJECT_NAME    = STARLINK-35158
OBJECT_ID      = 2025-257B
CENTER_NAME    = EARTH
REF_FRAME      = TEME
TIME_SYSTEM    = UTC
MEAN_ELEMENT_THEORY = SGP/SGP4

EPOCH          = 2025-11-21T14:58:15.584736
MEAN_MOTION    = 15.79205458
ECCENTRICITY   = .0001996
INCLINATION    = 53.1537
RA_OF_ASC_NODE = 5.7112
ARG_OF_PERICENTER = 334.5225
MEAN_ANOMALY   = 25.5698

EPHEMERIS_TYPE = 0
CLASSIFICATION_TYPE = U
NORAD_CAT_ID   = 66381
ELEMENT_SET_NO = 999
REV_AT_EPOCH   = 309
BSTAR          = .25357E-2
MEAN_MOTION_DOT = .490546E-2
MEAN_MOTION_DDOT = 0

CCSDS_OMM_VERS = 2.0
CREATION_DATE  = 
ORIGINATOR     = 

OBJECT_NAME    = STARLINK-35639
OBJECT_ID      = 2025-257C
CENTER_NAME    = EARTH
REF_FRAME      = TEME
TIME_SYSTEM    = UTC
MEAN_ELEMENT_THEORY = SGP/SGP4

EPOCH          = 2025-11-21T11:54:53.953056
MEAN_MOTION    = 15.82190433
ECCENTRICITY   = .001923
INCLINATION    = 53.1524
RA_OF_ASC_NODE = 6.3389
ARG_OF_PERICENTER = 313.1887
MEAN_ANOMALY   = 46.7528

EPHEMERIS_TYPE = 0
CLASSIFICATION_TYPE = U
NORAD_CAT_ID   = 66382
ELEMENT_SET_NO = 999
REV_AT_EPOCH   = 307
BSTAR          = .20008E-1
MEAN_MOTION_DOT = .5091158E-1
MEAN_MOTION_DDOT = 0

CCSDS_OMM_VERS = 2.0
CREATION_DATE  = 
ORIGINATOR     = 

OBJECT_NAME    = STARLINK-35690
OBJECT_ID      = 2025-257D
CENTER_NAME    = EARTH
REF_FRAME      = TEME
TIME_SYSTEM    = UTC
MEAN_ELEMENT_THEORY = SGP/SGP4

EPOCH          = 2025-11-21T14:56:38.569632
MEAN_MOTION    = 15.77975934
ECCENTRICITY   = .0002515
INCLINATION    = 53.1525
RA_OF_ASC_NODE = 5.7018
ARG_OF_PERICENTER = 79.0202
MEAN_ANOMALY   = 281.1102

EPHEMERIS_TYPE = 0
CLASSIFICATION_TYPE = U
NORAD_CAT_ID   = 66383
ELEMENT_SET_NO = 999
REV_AT_EPOCH   = 309
BSTAR          = -.71669E-3
MEAN_MOTION_DOT = -.12293E-2
MEAN_MOTION_DDOT = 0

CCSDS_OMM_VERS = 2.0
CREATION_DATE  = 
ORIGINATOR     = 

OBJECT_NAME    = STARLINK-35662
OBJECT_ID      = 2025-257E
CENTER_NAME    = EARTH
REF_FRAME      = TEME
TIME_SYSTEM    = UTC
MEAN_ELEMENT_THEORY = SGP/SGP4

EPOCH          = 2025-11-21T08:51:16.367616
MEAN_MOTION    = 15.78534204
ECCENTRICITY   = .0002296
INCLINATION    = 53.1528
RA_OF_ASC_NODE = 6.9647
ARG_OF_PERICENTER = 37.4332
MEAN_ANOMALY   = 322.6850

EPHEMERIS_TYPE = 0
CLASSIFICATION_TYPE = U
NORAD_CAT_ID   = 66384
ELEMENT_SET_NO = 999
REV_AT_EPOCH   = 305
BSTAR          = -.33372E-2
MEAN_MOTION_DOT = -.556061E-2
MEAN_MOTION_DDOT = 0

CCSDS_OMM_VERS = 2.0
CREATION_DATE  = 
ORIGINATOR     = 

OBJECT_NAME    = STARLINK-35659
OBJECT_ID      = 2025-257F
CENTER_NAME    = EARTH
REF_FRAME      = TEME
TIME_SYSTEM    = UTC
MEAN_ELEMENT_THEORY = SGP/SGP4

EPOCH          = 2025-11-21T14:57:11.627136
MEAN_MOTION    = 15.78057727
ECCENTRICITY   = .0002558
INCLINATION    = 53.1529
RA_OF_ASC_NODE = 5.7050
ARG_OF_PERICENTER = 100.7123
MEAN_ANOMALY   = 259.4186

EPHEMERIS_TYPE = 0
CLASSIFICATION_TYPE = U
NORAD_CAT_ID   = 66385
ELEMENT_SET_NO = 999
REV_AT_EPOCH   = 309
BSTAR          = -.50764E-3
MEAN_MOTION_DOT = -.87942E-3
MEAN_MOTION_DDOT = 0

CCSDS_OMM_VERS = 2.0
CREATION_DATE  = 
ORIGINATOR     = 

OBJECT_NAME    = STARLINK-35651
OBJECT_ID      = 2025-257G
CENTER_NAME    = EARTH
REF_FRAME      = TEME
TIME_SYSTEM    = UTC
MEAN_ELEMENT_THEORY = SGP/SGP4

EPOCH          = 2025-11-21T11:52:38.593632
MEAN_MOTION    = 15.80079757
ECCENTRICITY   = .0000684
INCLINATION    = 53.1527
RA_OF_ASC_NODE = 6.3282
ARG_OF_PERICENTER = 91.4871
MEAN_ANOMALY   = 268.6230

EPHEMERIS_TYPE = 0
CLASSIFICATION_TYPE = U
NORAD_CAT_ID   = 66386
ELEMENT_SET_NO = 999
REV_AT_EPOCH   = 307
BSTAR          = .67996E-2
MEAN_MOTION_DOT = .1465307E-1
MEAN_MOTION_DDOT = 0

CCSDS_OMM_VERS = 2.0
CREATION_DATE  = 
ORIGINATOR     = 

OBJECT_NAME    = STARLINK-35661
OBJECT_ID      = 2025-257H
CENTER_NAME    = EARTH
REF_FRAME      = TEME
TIME_SYSTEM    = UTC
MEAN_ELEMENT_THEORY = SGP/SGP4

EPOCH          = 2025-11-21T14:54:47.939616
MEAN_MOTION    = 15.78567271
ECCENTRICITY   = .000137
INCLINATION    = 53.1527
RA_OF_ASC_NODE = 5.6939
ARG_OF_PERICENTER = 56.6034
MEAN_ANOMALY   = 303.5119

EPHEMERIS_TYPE = 0
CLASSIFICATION_TYPE = U
NORAD_CAT_ID   = 66387
ELEMENT_SET_NO = 999
REV_AT_EPOCH   = 309
BSTAR          = .21618E-2
MEAN_MOTION_DOT = .402024E-2
MEAN_MOTION_DDOT = 0

CCSDS_OMM_VERS = 2.0
CREATION_DATE  = 
ORIGINATOR     = 

OBJECT_NAME    = STARLINK-35647
OBJECT_ID      = 2025-257J
CENTER_NAME    = EARTH
REF_FRAME      = TEME
TIME_SYSTEM    = UTC
MEAN_ELEMENT_THEORY = SGP/SGP4

EPOCH          = 2025-11-21T14:53:56.215392
MEAN_MOTION    = 15.80114745
ECCENTRICITY   = .0003847
INCLINATION    = 53.1526
RA_OF_ASC_NODE = 5.6903
ARG_OF_PERICENTER = 284.5394
MEAN_ANOMALY   = 75.5201

EPHEMERIS_TYPE = 0
CLASSIFICATION_TYPE = U
NORAD_CAT_ID   = 66388
ELEMENT_SET_NO = 999
REV_AT_EPOCH   = 309
BSTAR          = .12831E-1
MEAN_MOTION_DOT = .2832619E-1
MEAN_MOTION_DDOT = 0

CCSDS_OMM_VERS = 2.0
CREATION_DATE  = 
ORIGINATOR     = 

OBJECT_NAME    = STARLINK-35694
OBJECT_ID      = 2025-257K
CENTER_NAME    = EARTH
REF_FRAME      = TEME
TIME_SYSTEM    = UTC
MEAN_ELEMENT_THEORY = SGP/SGP4

EPOCH          = 2025-11-21T14:53:52.996128
MEAN_MOTION    = 15.77636738
ECCENTRICITY   = .0000746
INCLINATION    = 53.1526
RA_OF_ASC_NODE = 5.6893
ARG_OF_PERICENTER = 298.1961
MEAN_ANOMALY   = 61.8985

EPHEMERIS_TYPE = 0
CLASSIFICATION_TYPE = U
NORAD_CAT_ID   = 66389
ELEMENT_SET_NO = 999
REV_AT_EPOCH   = 309
BSTAR          = -.10408E-2
MEAN_MOTION_DOT = -.174443E-2
MEAN_MOTION_DDOT = 0

CCSDS_OMM_VERS = 2.0
CREATION_DATE  = 
ORIGINATOR     = 

OBJECT_NAME    = STARLINK-35665
OBJECT_ID      = 2025-257L
CENTER_NAME    = EARTH
REF_FRAME      = TEME
TIME_SYSTEM    = UTC
MEAN_ELEMENT_THEORY = SGP/SGP4

EPOCH          = 2025-11-21T14:44:19.262976
MEAN_MOTION    = 15.76126151
ECCENTRICITY   = .000101
INCLINATION    = 53.1518
RA_OF_ASC_NODE = 5.6430
ARG_OF_PERICENTER = 59.5760
MEAN_ANOMALY   = 300.5360

EPHEMERIS_TYPE = 0
CLASSIFICATION_TYPE = U
NORAD_CAT_ID   = 66390
ELEMENT_SET_NO = 999
REV_AT_EPOCH   = 319
BSTAR          = -.47555E-2
MEAN_MOTION_DOT = -.699106E-2
MEAN_MOTION_DDOT = 0

CCSDS_OMM_VERS = 2.0
CREATION_DATE  = 
ORIGINATOR     = 

OBJECT_NAME    = STARLINK-35656
OBJECT_ID      = 2025-257M
CENTER_NAME    = EARTH
REF_FRAME      = TEME
TIME_SYSTEM    = UTC
MEAN_ELEMENT_THEORY = SGP/SGP4

EPOCH          = 2025-11-21T09:36:14.128992
MEAN_MOTION    = 15.82892740
ECCENTRICITY   = .0000615
INCLINATION    = 53.1528
RA_OF_ASC_NODE = 6.4312
ARG_OF_PERICENTER = 47.3708
MEAN_ANOMALY   = 312.7367

EPHEMERIS_TYPE = 0
CLASSIFICATION_TYPE = U
NORAD_CAT_ID   = 66391
ELEMENT_SET_NO = 999
REV_AT_EPOCH   = 316
BSTAR          = -.39462E-2
MEAN_MOTION_DOT = -.783312E-2
MEAN_MOTION_DDOT = 0

CCSDS_OMM_VERS = 2.0
CREATION_DATE  = 
ORIGINATOR     = 

OBJECT_NAME    = STARLINK-35671
OBJECT_ID      = 2025-257N
CENTER_NAME    = EARTH
REF_FRAME      = TEME
TIME_SYSTEM    = UTC
MEAN_ELEMENT_THEORY = SGP/SGP4

EPOCH          = 2025-11-21T14:52:45.643872
MEAN_MOTION    = 15.77576783
ECCENTRICITY   = .0001605
INCLINATION    = 53.1524
RA_OF_ASC_NODE = 5.6840
ARG_OF_PERICENTER = 72.2930
MEAN_ANOMALY   = 287.8267

EPHEMERIS_TYPE = 0
CLASSIFICATION_TYPE = U
NORAD_CAT_ID   = 66392
ELEMENT_SET_NO = 999
REV_AT_EPOCH   = 309
BSTAR          = -.32335E-3
MEAN_MOTION_DOT = -.55266E-3
MEAN_MOTION_DDOT = 0

